{"type": "FeatureCollection", "features": [ {"type": "Feature", "properties": {"norad_id": 31226, "name": "FENGYUN 1C DEB", "group": "fengyun-1c-debris", "lat": 66.62718896869033, "lon": -33.1930222345491, "alt_km": 850.9338387893549, "timestamp": "2025-12-12T20:43:07.316390+00:00", "meta": {"OBJECT_NAME": "FENGYUN 1C DEB", "OBJECT_ID": "1999-025BLG", "EPOCH": "2025-12-06T17:57:16.149312", "MEAN_MOTION": 14.2667576, "ECCENTRICITY": 0.01264653, "INCLINATION": 98.3501, "RA_OF_ASC_NODE": 340.838, "ARG_OF_PERICENTER": 213.6965, "MEAN_ANOMALY": 145.613, "EPHEMERIS_TYPE": 0, "CLASSIFICATION_TYPE": "U", "NORAD_CAT_ID": 31226, "ELEMENT_SET_NO": 999, "REV_AT_EPOCH": 61968, "BSTAR": 0.00066349543, "MEAN_MOTION_DOT": 1.704e-05, "MEAN_MOTION_DDOT": 0}, "tle": {"line1": "1 31226U 99025BLG 25340.74810358  .00001704  00000+0  66350-3 0  9993", "line2": "2 31226  98.3501 340.8380 0126465 213.6965 145.6130 14.26675760619688"}}, "geometry": {"type": "Point", "coordinates": [-33.1930222345491, 66.62718896869033]}}, {"type": "Feature", "properties": {"norad_id": 31228, "name": "FENGYUN 1C DEB", "group": "fengyun-1c-debris", "lat": 64.37035299274126, "lon": -120.3080806923116, "alt_km": 708.9445441767821, "timestamp": "2025-12-12T20:43:07.316400+00:00", "meta": {"OBJECT_NAME": "FENGYUN 1C DEB", "OBJECT_ID": "1999-025BLJ", "EPOCH": "2025-12-12T06:04:12.355392", "MEAN_MOTION": 14.36918086, "ECCENTRICITY": 0.00793081, "INCLINATION": 98.8685, "RA_OF_ASC_NODE": 258.0557, "ARG_OF_PERICENTER": 87.3763, "MEAN_ANOMALY": 63.2996, "EPHEMERIS_TYPE": 0, "CLASSIFICATION_TYPE": "U", "NORAD_CAT_ID": 31228, "ELEMENT_SET_NO": 999, "REV_AT_EPOCH": 97562, "BSTAR": 0.00084250324, "MEAN_MOTION_DOT": 2.539e-05, "MEAN_MOTION_DDOT": 0}, "tle": {"line1": "1 31228U 99025BLJ 25346.25292078  .00002539  00000+0  84250-3 0  9996", "line2": "2 31228  98.8685 258.0557 0079308  87.3763  63.2996 14.36918086975625"}}, "geometry": {"type": "Point", "coordinates": [-120.3080806923116, 64.37035299274126]}}, {"type": "Feature", "properties": {"norad_id": 31229, "name": "FENGYUN 1C DEB", "group": "fengyun-1c-debris", "lat": -35.10574835441132, "lon": -124.12732439702994, "alt_km": 819.2474756431657, "timestamp": "2025-12-12T20:43:07.316410+00:00", "meta": {"OBJECT_NAME": "FENGYUN 1C DEB", "OBJECT_ID": "1999-025BLK", "EPOCH": "2025-12-10T15:20:45.373056", "MEAN_MOTION": 14.21797924, "ECCENTRICITY": 0.0052864, "INCLINATION": 98.8673, "RA_OF_ASC_NODE": 59.9386, "ARG_OF_PERICENTER": 302.8603, "MEAN_ANOMALY": 56.7492, "EPHEMERIS_TYPE": 0, "CLASSIFICATION_TYPE": "U", "NORAD_CAT_ID": 31229, "ELEMENT_SET_NO": 999, "REV_AT_EPOCH": 96054, "BSTAR": 0.0021293, "MEAN_MOTION_DOT": 4.711e-05, "MEAN_MOTION_DDOT": 0}, "tle": {"line1": "1 31229U 99025BLK 25344.63941404  .00004711  00000+0  21293-2 0  9992", "line2": "2 31229  98.8673  59.9386 0052864 302.8603  56.7492 14.21797924960540"}}, "geometry": {"type": "Point", "coordinates": [-124.12732439702994, -35.10574835441132]}}, {"type": "Feature", "properties": {"norad_id": 31231, "name": "FENGYUN 1C DEB", "group": "fengyun-1c-debris", "lat": -73.17121815952292, "lon": -65.03808915050939, "alt_km": 738.5529186636895, "timestamp": "2025-12-12T20:43:07.316421+00:00", "meta": {"OBJECT_NAME": "FENGYUN 1C DEB", "OBJECT_ID": "1999-025BLM", "EPOCH": "2025-12-10T17:07:20.657856", "MEAN_MOTION": 14.75448161, "ECCENTRICITY": 0.01463394, "INCLINATION": 98.8622, "RA_OF_ASC_NODE": 143.661, "ARG_OF_PERICENTER": 112.7421, "MEAN_ANOMALY": 248.9327, "EPHEMERIS_TYPE": 0, "CLASSIFICATION_TYPE": "U", "NORAD_CAT_ID": 31231, "ELEMENT_SET_NO": 999, "REV_AT_EPOCH": 62991, "BSTAR": 0.0049834558, "MEAN_MOTION_DOT": 0.00040479, "MEAN_MOTION_DDOT": 0}, "tle": {"line1": "1 31231U 99025BLM 25344.71343354  .00040479  00000+0  49835-2 0  9997", "line2": "2 31231  98.8622 143.6610 0146339 112.7421 248.9327 14.75448161629915"}}, "geometry": {"type": "Point", "coordinates": [-65.03808915050939, -73.17121815952292]}}, {"type": "Feature", "properties": {"norad_id": 31234, "name": "FENGYUN 1C DEB", "group": "fengyun-1c-debris", "lat": 5.158936994000484, "lon": 161.66352059548842, "alt_km": 835.5750290000988, "timestamp": "2025-12-12T20:43:07.316431+00:00", "meta": {"OBJECT_NAME": "FENGYUN 1C DEB", "OBJECT_ID": "1999-025BLQ", "EPOCH": "2025-12-08T16:58:03.836640", "MEAN_MOTION": 14.08010887, "ECCENTRICITY": 0.00729408, "INCLINATION": 98.7836, "RA_OF_ASC_NODE": 336.8196, "ARG_OF_PERICENTER": 238.3597, "MEAN_ANOMALY": 121.0443, "EPHEMERIS_TYPE": 0, "CLASSIFICATION_TYPE": "U", "NORAD_CAT_ID": 31234, "ELEMENT_SET_NO": 999, "REV_AT_EPOCH": 72663, "BSTAR": 0.00057434574, "MEAN_MOTION_DOT": 9.57e-06, "MEAN_MOTION_DDOT": 0}, "tle": {"line1": "1 31234U 99025BLQ 25342.70698885  .00000957  00000+0  57435-3 0  9992", "line2": "2 31234  98.7836 336.8196 0072940 238.3597 121.0443 14.08010887726637"}}, "geometry": {"type": "Point", "coordinates": [161.66352059548842, 5.158936994000484]}}, {"type": "Feature", "properties": {"norad_id": 31235, "name": "FENGYUN 1C DEB", "group": "fengyun-1c-debris", "lat": 14.788403346173077, "lon": -42.62133966858433, "alt_km": 933.5742668532857, "timestamp": "2025-12-12T20:43:07.316442+00:00", "meta": {"OBJECT_NAME": "FENGYUN 1C DEB", "OBJECT_ID": "1999-025BLR", "EPOCH": "2025-12-10T15:28:40.631808", "MEAN_MOTION": 14.18570013, "ECCENTRICITY": 0.0179703, "INCLINATION": 98.4683, "RA_OF_ASC_NODE": 133.0053, "ARG_OF_PERICENTER": 28.2591, "MEAN_ANOMALY": 332.8195, "EPHEMERIS_TYPE": 0, "CLASSIFICATION_TYPE": "U", "NORAD_CAT_ID": 31235, "ELEMENT_SET_NO": 999, "REV_AT_EPOCH": 63137, "BSTAR": 0.0039892, "MEAN_MOTION_DOT": 9.663e-05, "MEAN_MOTION_DDOT": 0}, "tle": {"line1": "1 31235U 99025BLR 25344.64491472  .00009663  00000+0  39892-2 0  9990", "line2": "2 31235  98.4683 133.0053 0179703  28.2591 332.8195 14.18570013631374"}}, "geometry": {"type": "Point", "coordinates": [-42.62133966858433, 14.788403346173077]}}, {"type": "Feature", "properties": {"norad_id": 31236, "name": "FENGYUN 1C DEB", "group": "fengyun-1c-debris", "lat": 19.286337384956234, "lon": -60.94006301110645, "alt_km": 736.242449066066, "timestamp": "2025-12-12T20:43:07.316452+00:00", "meta": {"OBJECT_NAME": "FENGYUN 1C DEB", "OBJECT_ID": "1999-025BLS", "EPOCH": "2025-12-11T15:10:22.905120", "MEAN_MOTION": 13.85806363, "ECCENTRICITY": 0.03145752, "INCLINATION": 98.5462, "RA_OF_ASC_NODE": 300.9507, "ARG_OF_PERICENTER": 49.7406, "MEAN_ANOMALY": 313.0812, "EPHEMERIS_TYPE": 0, "CLASSIFICATION_TYPE": "U", "NORAD_CAT_ID": 31236, "ELEMENT_SET_NO": 999, "REV_AT_EPOCH": 61009, "BSTAR": 0.0078207637, "MEAN_MOTION_DOT": 0.00013198, "MEAN_MOTION_DDOT": 0}, "tle": {"line1": "1 31236U 99025BLS 25345.63220955  .00013198  00000+0  78208-2 0  9999", "line2": "2 31236  98.5462 300.9507 0314575  49.7406 313.0812 13.85806363610097"}}, "geometry": {"type": "Point", "coordinates": [-60.94006301110645, 19.286337384956234]}}, {"type": "Feature", "properties": {"norad_id": 31237, "name": "FENGYUN 1C DEB", "group": "fengyun-1c-debris", "lat": -30.071489075339578, "lon": -9.336946860444904, "alt_km": 732.5963826911748, "timestamp": "2025-12-12T20:43:07.316462+00:00", "meta": {"OBJECT_NAME": "FENGYUN 1C DEB", "OBJECT_ID": "1999-025BLT", "EPOCH": "2025-12-12T05:45:33.682752", "MEAN_MOTION": 14.31386598, "ECCENTRICITY": 0.00890377, "INCLINATION": 98.4541, "RA_OF_ASC_NODE": 345.1161, "ARG_OF_PERICENTER": 350.4609, "MEAN_ANOMALY": 9.488, "EPHEMERIS_TYPE": 0, "CLASSIFICATION_TYPE": "U", "NORAD_CAT_ID": 31237, "ELEMENT_SET_NO": 999, "REV_AT_EPOCH": 97259, "BSTAR": 0.0009608234, "MEAN_MOTION_DOT": 2.618e-05, "MEAN_MOTION_DDOT": 0}, "tle": {"line1": "1 31237U 99025BLT 25346.23997318  .00002618  00000+0  96082-3 0  9997", "line2": "2 31237  98.4541 345.1161 0089037 350.4609   9.4880 14.31386598972593"}}, "geometry": {"type": "Point", "coordinates": [-9.336946860444904, -30.071489075339578]}}, {"type": "Feature", "properties": {"norad_id": 31239, "name": "FENGYUN 1C DEB", "group": "fengyun-1c-debris", "lat": 26.187770004923728, "lon": 166.14937142309557, "alt_km": 833.2574485191763, "timestamp": "2025-12-12T20:43:07.316472+00:00", "meta": {"OBJECT_NAME": "FENGYUN 1C DEB", "OBJECT_ID": "1999-025BLV", "EPOCH": "2025-12-11T23:51:24.109056", "MEAN_MOTION": 14.09860145, "ECCENTRICITY": 0.0049253, "INCLINATION": 98.7583, "RA_OF_ASC_NODE": 340.9554, "ARG_OF_PERICENTER": 200.1613, "MEAN_ANOMALY": 224.191, "EPHEMERIS_TYPE": 0, "CLASSIFICATION_TYPE": "U", "NORAD_CAT_ID": 31239, "ELEMENT_SET_NO": 999, "REV_AT_EPOCH": 96001, "BSTAR": 0.00057285, "MEAN_MOTION_DOT": 9.76e-06, "MEAN_MOTION_DDOT": 0}, "tle": {"line1": "1 31239U 99025BLV 25345.99402904  .00000976  00000+0  57285-3 0  9990", "line2": "2 31239  98.7583 340.9554 0049253 200.1613 224.1910 14.09860145960019"}}, "geometry": {"type": "Point", "coordinates": [166.14937142309557, 26.187770004923728]}}, {"type": "Feature", "properties": {"norad_id": 31241, "name": "FENGYUN 1C DEB", "group": "fengyun-1c-debris", "lat": 0.5500874246022867, "lon": -46.21894555607519, "alt_km": 717.9618968975319, "timestamp": "2025-12-12T20:43:07.316483+00:00", "meta": {"OBJECT_NAME": "FENGYUN 1C DEB", "OBJECT_ID": "1999-025BLX", "EPOCH": "2025-12-11T08:50:09.305664", "MEAN_MOTION": 14.38689727, "ECCENTRICITY": 0.00667838, "INCLINATION": 99.2338, "RA_OF_ASC_NODE": 132.0841, "ARG_OF_PERICENTER": 185.0225, "MEAN_ANOMALY": 175.0298, "EPHEMERIS_TYPE": 0, "CLASSIFICATION_TYPE": "U", "NORAD_CAT_ID": 31241, "ELEMENT_SET_NO": 999, "REV_AT_EPOCH": 97671, "BSTAR": 0.0012232111, "MEAN_MOTION_DOT": 3.801e-05, "MEAN_MOTION_DDOT": 0}, "tle": {"line1": "1 31241U 99025BLX 25345.36816326  .00003801  00000+0  12232-2 0  9993", "line2": "2 31241  99.2338 132.0841 0066783 185.0225 175.0298 14.38689727976716"}}, "geometry": {"type": "Point", "coordinates": [-46.21894555607519, 0.5500874246022867]}}]}